{"type":"FeatureCollection","features":[{"type":"Feature","geometry":{"type":"MultiPolygon","coordinates":[[[[-87.337830228506689,34.271205811501567],[-87.333412642916187,34.271165680971009],[-87.328994646288507,34.271125392296199],[-87.324577066425192,34.271084943240709],[-87.320159489477504,34.271044334931346],[-87.320150193087557,34.272859773852822],[-87.324565413462309,34.272892416540799],[-87.324553727162225,34.274705212613419],[-87.324530801107045,34.278325478757921],[-87.326756155117423,34.278343161234751],[-87.326826575672129,34.281964050038802],[-87.326886095241619,34.285582143914269],[-87.324484119059278,34.285566006842558],[-87.320086120338644,34.285539090572158],[-87.315691800139177,34.285388309877241],[-87.315706866999989,34.281779063948129],[-87.315721913266003,34.278164318296106],[-87.315737383671504,34.27455231825278],[-87.315752450394967,34.270943065955798],[-87.315776714587429,34.267358527331858],[-87.320196963769078,34.267391040756088],[-87.320233785528572,34.263784476276186],[-87.315800854664005,34.263741000929777],[-87.311368814076374,34.263601153783412],[-87.311380566147946,34.259939675569854],[-87.315825646940198,34.260076740514251],[-87.315849764818736,34.256453712205811],[-87.311392005932248,34.256305684342429],[-87.306933847567009,34.256157495319925],[-87.302476107543583,34.256006394239336],[-87.298139457107013,34.255923557536683],[-87.293803237372927,34.2558433151965],[-87.289466601501985,34.255760171586303],[-87.285129973033705,34.255676874516524],[-87.280793321746472,34.255708875364867],[-87.276457070897962,34.255737973059439],[-87.272120815985005,34.255766917380612],[-87.267784151938756,34.255798458054592],[-87.267726817450807,34.252068403977603],[-87.263318092199327,34.252020227081942],[-87.263272604054379,34.248309384592993],[-87.267669075377796,34.248338348482072],[-87.267611753284726,34.244608289761011],[-87.267591383227511,34.243292210698179],[-87.26733022638652,34.243618837250033],[-87.266618426360182,34.244130425291544],[-87.266165286311647,34.24440972171476],[-87.265281190827992,34.244688459743323],[-87.264141077319067,34.244958996460937],[-87.263463208077283,34.245089926949895],[-87.262137793559944,34.245552728696765],[-87.260458385268535,34.246187392713836],[-87.25927450358482,34.246659699591476],[-87.258953520503695,34.246792045002543],[-87.258662199626713,34.247086207409907],[-87.258378645902084,34.247441788842039],[-87.25813520163203,34.247780127953632],[-87.257984125116252,34.248005556695048],[-87.257831351858869,34.248130352243379],[-87.257549907825677,34.248211908176984],[-87.257293791948513,34.248198108315044],[-87.256929203578594,34.248140833225449],[-87.256328371118315,34.247650137928247],[-87.255768316210876,34.247181333640604],[-87.255081481388785,34.246781099100708],[-87.254470365335465,34.246480892829176],[-87.254076166763966,34.246261532259496],[-87.253584583365679,34.245859025847786],[-87.253304991232667,34.245649775686317],[-87.252967157454222,34.245580995015324],[-87.252692073504406,34.245640098809581],[-87.252620552974022,34.245791906211402],[-87.252591209369484,34.246049469910332],[-87.252668456248458,34.246238697529087],[-87.252752341936969,34.246422256389017],[-87.252732761865687,34.247261256716129],[-87.252691079955028,34.247586065138094],[-87.252481368209985,34.247929594532543],[-87.252102656266359,34.248239314298552],[-87.250712286047715,34.249247367053634],[-87.250252987947846,34.249565819456166],[-87.25008789250893,34.2496628049458],[-87.249569362520788,34.249831122973802],[-87.248722894408786,34.249955608647518],[-87.248023439061896,34.250021037686444],[-87.247717349533033,34.250008183215343],[-87.247329599047575,34.249832401112201],[-87.246880605280737,34.249534422330129],[-87.246451892343813,34.249268981830276],[-87.245997147120875,34.249216869501382],[-87.245802312717245,34.249366596921796],[-87.245696809824693,34.249548068531936],[-87.245681460233499,34.249810435780397],[-87.245655834893668,34.250048341072691],[-87.245738725000834,34.250284995963654],[-87.245939448872264,34.250487519037101],[-87.246139899840685,34.250673658012971],[-87.24632980180624,34.250818951017862],[-87.246540256531901,34.251013167429193],[-87.246739477112868,34.251125578544972],[-87.246879781292378,34.251255055692361],[-87.246882110471034,34.25139431740908],[-87.246738379749686,34.251649971735894],[-87.2463593890769,34.251998466206189],[-87.245291182254789,34.253026763680566],[-87.244970414122207,34.253317229087472],[-87.244559076433262,34.253502221726237],[-87.244087176658894,34.253605975633349],[-87.243844095430262,34.253821802913208],[-87.243827372495403,34.254002251186314],[-87.243653621540986,34.254233667109425],[-87.243134028755691,34.254436287546064],[-87.242712815893356,34.254621387669246],[-87.242291874315057,34.254822870139485],[-87.242051925905869,34.255227107204],[-87.24193804439119,34.255498799838975],[-87.241915821142939,34.255941501369378],[-87.241952349265333,34.256948875380317],[-87.242038377703224,34.257373945728574],[-87.242086035939465,34.257865004579749],[-87.242035171319742,34.258365389288713],[-87.241913331775933,34.258751881499698],[-87.241877418216177,34.258965323770397],[-87.241850529336688,34.259159933506744],[-87.2457401954658,34.259178976151162],[-87.250131826131806,34.259200330757707],[-87.250161320072891,34.262872721810602],[-87.24577197361819,34.262848615303163],[-87.245803747536954,34.266515503413345],[-87.241417515149834,34.266488486337146],[-87.237030449165715,34.266458565058819],[-87.236429286477588,34.266454828900621],[-87.236102285658916,34.267192963811695],[-87.235829336316002,34.267700175211495],[-87.235718437567073,34.26815635234837],[-87.23566839627324,34.268710191410101],[-87.235589557676406,34.26931353918026],[-87.235714541732861,34.269705542703001],[-87.235631008447967,34.270026163616414],[-87.235095605996108,34.270782272608926],[-87.23450096622922,34.271539056676474],[-87.236649305596785,34.272485761391927],[-87.23796194163485,34.273048576937228],[-87.23997422366692,34.273824654611573],[-87.240660277751402,34.27411185188074],[-87.24190737825073,34.274294238649254],[-87.243923648597629,34.27441858116476],[-87.244874199707937,34.274579761551266],[-87.245337752316601,34.274844905719895],[-87.245947326648107,34.274985416963624],[-87.246213038965166,34.274933174251821],[-87.246712790114771,34.274706104713076],[-87.247828272202057,34.274103083500457],[-87.249780120818812,34.273035480367696],[-87.250237491996728,34.272931834268],[-87.251182257726597,34.272748779125394],[-87.251757256028426,34.272594587181509],[-87.252039002904993,34.272615914958855],[-87.252145337054088,34.272774515759856],[-87.25216303552078,34.272946437583997],[-87.252017029538194,34.273071075802619],[-87.251544852888401,34.27317489988868],[-87.251295195374027,34.273300736893965],[-87.251266819435358,34.273374833874655],[-87.251523083259315,34.27364235305258],[-87.251927214979631,34.273895865063466],[-87.252600359987952,34.274293797218242],[-87.252947748348944,34.274695500153683],[-87.253116416916086,34.275037799226354],[-87.2534300611634,34.275193996449985],[-87.254231733994018,34.275307650167271],[-87.255374395778077,34.275441931162675],[-87.255940602212434,34.27564436945211],[-87.256181665768892,34.275887465467086],[-87.256607052791551,34.27652185212655],[-87.256998892674176,34.276923026692089],[-87.257528775777104,34.277605374669974],[-87.25760965805307,34.278010161184525],[-87.25749027858015,34.278835296910174],[-87.257367579657242,34.279463755101389],[-87.257195271199421,34.279785421048366],[-87.256713022744151,34.280172161576886],[-87.256598700616266,34.280419384562634],[-87.256619518856823,34.280775690327161],[-87.256450727696247,34.281306325025945],[-87.256296950363648,34.281849079846545],[-87.256124426055408,34.282158452053515],[-87.256114589587497,34.282453640107413],[-87.256312697889115,34.282783297360929],[-87.256524787664347,34.283063612881797],[-87.257080593405504,34.283524355267545],[-87.257545477201376,34.283863204633349],[-87.258055621735807,34.284250704777008],[-87.258528400201627,34.285056658318879],[-87.258940912527493,34.285801837464255],[-87.259004925171539,34.286083871356816],[-87.258991361555445,34.286157797575818],[-87.258802576396747,34.286381299457247],[-87.258438359763787,34.286742083919783],[-87.257958153419267,34.287251752942453],[-87.257741610973596,34.287586228566191],[-87.257747004830165,34.287905828811027],[-87.257812260176337,34.288261617188418],[-87.25784561424274,34.288482534454317],[-87.257760697309322,34.288717121661726],[-87.256657422344816,34.289172555083198],[-87.255615654005354,34.289762506643832],[-87.255014861899696,34.29015061699647],[-87.254286153980615,34.290859871236627],[-87.253271857347727,34.293084683561929],[-87.25257466768042,34.294789435372003],[-87.252498827246285,34.295564881735523],[-87.252652468514157,34.297653204457134],[-87.252726762155646,34.300308002647228],[-87.252870285911584,34.301793999755802],[-87.252835571448131,34.302372253526002],[-87.252546564627011,34.302805917458841],[-87.251935816246444,34.303489201791464],[-87.251412900287747,34.304109992698798],[-87.250609833866406,34.305693010881164],[-87.250027902908684,34.307211992579973],[-87.249751408031642,34.307510263496326],[-87.24891551555973,34.308024010692435],[-87.247127870969436,34.30921265697269],[-87.246320748707987,34.309676875791538],[-87.246060075918606,34.310036429545185],[-87.245643655478048,34.310828093738543],[-87.245002757416955,34.312372321429535],[-87.244950292000155,34.312778651521185],[-87.245050495966197,34.313453705317393],[-87.245197409018715,34.3142634621952],[-87.2451891812768,34.314656987556248],[-87.24506264302741,34.315064171508197],[-87.244653185581157,34.315388553224992],[-87.243921092940141,34.3159133655586],[-87.243573353333659,34.3163845692495],[-87.24343157887958,34.316767337597682],[-87.243194512921761,34.318540504076068],[-87.242882538756078,34.320265353231385],[-87.242716467727476,34.320968062421308],[-87.242572627337253,34.321227906482171],[-87.24049605708197,34.32377219975001],[-87.239740798024442,34.324690684171792],[-87.237777881221405,34.326950848770061],[-87.237140075615955,34.327806496717294],[-87.236936734628699,34.328054721732578],[-87.236831020440178,34.329715716980317],[-87.236859555085843,34.330539134108406],[-87.236781297308468,34.331179354970438],[-87.236536974991154,34.331637058754119],[-87.234871604934725,34.333979829841347],[-87.233642113054046,34.335801217186663],[-87.233396943823919,34.336209745723785],[-87.233374456914547,34.336640316837723],[-87.233396016733323,34.337045794851043],[-87.233451095611372,34.337684488464795],[-87.233124565791229,34.338548850088799],[-87.23284289470439,34.339437287371211],[-87.232486918493734,34.340314278533754],[-87.232130118622194,34.341142099338803],[-87.231960452522941,34.341635824968129],[-87.231392497408692,34.342244751663962],[-87.230998051664386,34.342656999467792],[-87.23251568265708,34.34266182465278],[-87.236953959031212,34.342700045688218],[-87.241392660564998,34.342740853799583],[-87.245831357377213,34.342778752193638],[-87.24582440243168,34.340965255408889],[-87.247649881018958,34.340994451846939],[-87.247674246717423,34.342795582990298],[-87.250269651092253,34.342819239293725],[-87.254651222319183,34.342867929894489],[-87.254664039529686,34.346559545473028],[-87.25467643632922,34.350248410896107],[-87.250302750275495,34.350194208445757],[-87.25031909235723,34.35388031570686],[-87.250335445073915,34.357569169518712],[-87.251386073103717,34.3575842154507],[-87.251405344916222,34.358278934603916],[-87.252277305805123,34.358326625828276],[-87.252838148158745,34.358522412487865],[-87.253300810365047,34.359095017127146],[-87.253868974225838,34.35972419254027],[-87.254193264584998,34.360356196620749],[-87.254200092948608,34.360760697238106],[-87.253928741432645,34.361306366840815],[-87.253389757835848,34.362301726037863],[-87.253258192612819,34.362765629490141],[-87.253375879137351,34.363544525021929],[-87.253497956234511,34.364583456314534],[-87.253710081298181,34.364989625024158],[-87.254574643992882,34.365414181760421],[-87.255621195557595,34.366495000762448],[-87.256009351236159,34.366779474252219],[-87.256920643868597,34.367086760557463],[-87.257377026035385,34.3672837403412],[-87.257902607538725,34.367451014349079],[-87.258978006020428,34.367733488171545],[-87.260138938364989,34.367800641606657],[-87.260842666208234,34.368197013666112],[-87.261408547330433,34.368744260976179],[-87.261899741864681,34.3688782421033],[-87.262074941595458,34.368933993714478],[-87.263049092953409,34.368835920939297],[-87.263606100527767,34.368800513570179],[-87.264128755213036,34.368794403810178],[-87.264983683200398,34.369882547066602],[-87.265522573844365,34.370829890764462],[-87.26620331664914,34.371920063154192],[-87.266417307153091,34.372451286687628],[-87.266721665287363,34.373705696489466],[-87.266940093907394,34.374252208094809],[-87.267189924338368,34.374596062175918],[-87.267890680914135,34.375022023330082],[-87.268878801779337,34.375529908611426],[-87.269471189746781,34.375522957345474],[-87.270026263937538,34.375371949203654],[-87.270721214541311,34.375248193952956],[-87.271280235470584,34.375328321165952],[-87.272301878510063,34.376128848514014],[-87.273399201387363,34.376950610953728],[-87.275420814348195,34.376955700127496],[-87.27670841027026,34.377113841839218],[-87.277273151885225,34.377251737408585],[-87.281110793692633,34.377869834015094],[-87.283423635659005,34.3781904445325],[-87.284156922500955,34.378268447021362],[-87.284679132735562,34.378233355589117],[-87.285514169970853,34.378109100592631],[-87.286942204203257,34.378090897882878],[-87.289210767385782,34.378266214612026],[-87.289874947343421,34.378053350306963],[-87.290353216685602,34.377819140989864],[-87.291009300729073,34.377464546881569],[-87.292120891020758,34.377249011105242],[-87.293268826240663,34.377119726576588],[-87.294237390920188,34.377398916080914],[-87.294635875550782,34.377565780736703],[-87.296526145891605,34.378034461940835],[-87.298596290702079,34.378646733945288],[-87.299258809819634,34.378839803278389],[-87.300063823365875,34.379032443797435],[-87.301321352201285,34.379190752375003],[-87.302299601331981,34.379323502977037],[-87.302961820431719,34.379764901210827],[-87.304537039812615,34.381117209652295],[-87.304971990548609,34.381246505155417],[-87.305678101480694,34.381417378411456],[-87.306366190167282,34.381588464523411],[-87.306766143211703,34.381777964339541],[-87.307321506090886,34.382532578418015],[-87.308237957904922,34.383411548200506],[-87.30867954408923,34.383967114797052],[-87.308897947428676,34.384084059726426],[-87.30920490527501,34.384110251975798],[-87.309637517046141,34.384105032618223],[-87.309981575766187,34.384190564606349],[-87.310327734966776,34.384395649003189],[-87.310497315113608,34.384812127255955],[-87.310686235477917,34.385303108387376],[-87.310750815227806,34.385900222118977],[-87.310721590151346,34.38628920582741],[-87.310611560973442,34.387052238667614],[-87.310283429781961,34.387822999769519],[-87.310061239723666,34.38840364556448],[-87.309952962540407,34.388854479734626],[-87.309958036699484,34.389143400268935],[-87.310156448309385,34.389413932501412],[-87.310453081153582,34.389763551190129],[-87.310922846854766,34.390046859975278],[-87.311270235371111,34.389978445572609],[-87.311695389307047,34.389812058975366],[-87.312367094902797,34.389579880835562],[-87.313078401772842,34.38928229764074],[-87.313749566789554,34.388904923457318],[-87.314310492815594,34.388866025377553],[-87.314508634710563,34.389120499107783],[-87.314766843199024,34.389486626845496],[-87.314989441555269,34.390029785078482],[-87.315427901220971,34.39070524136482],[-87.316109085701669,34.39072126763643],[-87.320531118926468,34.390827961299742],[-87.320599091453403,34.394414935314906],[-87.320667485538209,34.398001906069922],[-87.320735472185561,34.401588875737055],[-87.320606416153751,34.405247827804473],[-87.320476935623532,34.408906778695844],[-87.320347859696341,34.412565726238675],[-87.320218773826042,34.416224671519046],[-87.324611483703961,34.416334038745774],[-87.329003778344799,34.416440500534428],[-87.32899767191735,34.416730079744866],[-87.329765907281484,34.417010062212697],[-87.330169726749844,34.417198711482357],[-87.330459483687918,34.417540863246515],[-87.331026267004262,34.4184465675837],[-87.331418592499503,34.418925740110076],[-87.331660039629782,34.419365276175256],[-87.331897788949888,34.419597437920807],[-87.332585970553851,34.419824077679237],[-87.332971112005808,34.420134465741668],[-87.333301696963076,34.420397181347248],[-87.334163643676533,34.421270485976358],[-87.334334673546891,34.421503461587385],[-87.334342581193326,34.42194585827076],[-87.33415053862818,34.422404537060672],[-87.333843934901978,34.422989072716682],[-87.333764224151153,34.423197469731939],[-87.333837133449862,34.423542273276752],[-87.333939353056834,34.423754195414141],[-87.337587989060694,34.423836017676251],[-87.337487146712803,34.427426175282349],[-87.337386297060235,34.431016330748491],[-87.341756049827779,34.431097655257979],[-87.341756245516038,34.433664001140379],[-87.342372890314877,34.433310352299038],[-87.342703363114495,34.433126510518719],[-87.342780573861617,34.432779860163286],[-87.342973336212751,34.432362643637951],[-87.343067976163681,34.432057261548572],[-87.343414132668471,34.431817912691479],[-87.343878076414214,34.431632419286828],[-87.344440136189277,34.431335088483237],[-87.344504884464769,34.431223665157333],[-87.344804961896443,34.4312061281083],[-87.345007171071742,34.431314251327812],[-87.345293800954423,34.431476641825853],[-87.345611560127381,34.431514195665279],[-87.346008010437345,34.431288045384768],[-87.346901012792216,34.430834501912578],[-87.347213534415985,34.430581730950109],[-87.347409012620034,34.43031658073722],[-87.347432657260342,34.429777000550459],[-87.347591771703563,34.42934636574762],[-87.347803930310462,34.429081008332957],[-87.347998904443557,34.428788207668312],[-87.348188139764744,34.42817743647322],[-87.348195344709538,34.427651887597456],[-87.348189856851931,34.427347742107315],[-87.348085013711255,34.42708631112172],[-87.348145014757435,34.426712214866086],[-87.348140275563082,34.426449543715307],[-87.348081743864299,34.42598012061103],[-87.348005032892985,34.425427955285841],[-87.347712684129618,34.424947600101916],[-87.34758866904896,34.424548127038484],[-87.347576951142813,34.423898361140949],[-87.347700943085997,34.423371365639106],[-87.348027874046224,34.42299396322484],[-87.348389165957485,34.422671445815418],[-87.348582627202418,34.422295695543788],[-87.34862594050162,34.421921805640004],[-87.348566911322891,34.421424732807914],[-87.348542246178894,34.420982545700795],[-87.34858780425013,34.420733079018376],[-87.34880117054567,34.420443532174303],[-87.349027008229641,34.420105380567925],[-87.34915697514657,34.419910179022928],[-87.349234398577508,34.419577349700383],[-87.349681329978111,34.419378218036321],[-87.35011207622388,34.41920694130949],[-87.350576684852598,34.419062898750184],[-87.350957828195263,34.419002159593568],[-87.351558193256224,34.418898610263952],[-87.352005615253773,34.418727119906663],[-87.352305895882736,34.418723390425662],[-87.35279243258519,34.418869452905184],[-87.353144261542482,34.418948048199603],[-87.353460724622437,34.418916458969655],[-87.353925075115768,34.418758579095339],[-87.354286326102525,34.41843604512821],[-87.354680187268571,34.418071620762447],[-87.355433150951484,34.417468858254196],[-87.355453875821226,34.416962979163515],[-87.355524261996166,34.413315167638913],[-87.359475819718469,34.413375406932403],[-87.359926514308427,34.412607502311282],[-87.360868964908065,34.411361648549104],[-87.361747847765102,34.410700903495822],[-87.362772452142977,34.41021553856023],[-87.363619400471606,34.409764488584472],[-87.364374224031778,34.409244626431303],[-87.365912598878325,34.408492749105825],[-87.367072111146641,34.40759217171648],[-87.367487226785812,34.406907666302018],[-87.367793018272067,34.40612821536812],[-87.367928254233121,34.405691208946855],[-87.368096134454731,34.405127942243446],[-87.368335262724628,34.404563781153271],[-87.368846141179489,34.404112248751566],[-87.368860157917297,34.403286667833243],[-87.369736509901756,34.403246658640214],[-87.369753786392081,34.404191553556196],[-87.371006060792453,34.404471164073392],[-87.372259424652825,34.404809817381505],[-87.372651841839982,34.404834414043492],[-87.373217963632698,34.404707419600427],[-87.373254007642601,34.402478955367165],[-87.37758360482772,34.402619600454926],[-87.377539540152625,34.399084823644095],[-87.377495468271647,34.395547296021164],[-87.381851581150087,34.395671217044999],[-87.386207705353883,34.395794982888319],[-87.386224035707372,34.399022023281177],[-87.386961512244923,34.399370974893564],[-87.387267737914868,34.399525624003282],[-87.387819241434727,34.399938861089602],[-87.388213090895704,34.400300614089218],[-87.388588653284089,34.400670239080711],[-87.388926648134813,34.401002136590606],[-87.389242395015529,34.401128014310679],[-87.389567075877494,34.401238495917184],[-87.390077917010956,34.401445937958123],[-87.390570997070554,34.401553975389128],[-87.390835160292951,34.401414848430136],[-87.391139858729602,34.401299699100463],[-87.39156947208231,34.401198853320182],[-87.391772256653056,34.401275747694584],[-87.391901151499781,34.40150459127932],[-87.391953946165842,34.401766195613348],[-87.392027240297054,34.402099068783066],[-87.392231648887403,34.402263367328437],[-87.392611414400022,34.402576438130971],[-87.393066841760444,34.402832908373917],[-87.393587837600066,34.403109866780397],[-87.394983604821064,34.403141901836733],[-87.399394342887604,34.403245778848941],[-87.40380466249519,34.403346749410872],[-87.40381960830122,34.406975064228831],[-87.403822595324314,34.407720900405238],[-87.404329937390713,34.407683409844154],[-87.404590316803038,34.407628479347125],[-87.404873849296209,34.407480396612705],[-87.405510692673673,34.407010589578327],[-87.406435812963778,34.406469871931868],[-87.408223670295229,34.405744744573859],[-87.409362424392285,34.405454463104533],[-87.411977123457689,34.404971620345137],[-87.412791847317635,34.404606927580922],[-87.413789899188174,34.404309982780312],[-87.414527651125312,34.404111343354188],[-87.41474171225569,34.404120394848583],[-87.415685717731037,34.40427365179243],[-87.41618445286862,34.404255379509387],[-87.416738875430767,34.404165470253702],[-87.41737828581897,34.403956991149386],[-87.417570688719664,34.403842479219193],[-87.418591240205032,34.403337783645242],[-87.419029601034367,34.403142997293678],[-87.419305125922548,34.402631207867998],[-87.419565945925768,34.402095970527803],[-87.419947722157403,34.401925552789685],[-87.420137729320231,34.402171286969342],[-87.420477881416602,34.402816918632766],[-87.42097351279665,34.403389617143603],[-87.421313924403563,34.40400029296363],[-87.421489883390848,34.404304795074999],[-87.421944361209,34.404733249829178],[-87.423344768864325,34.405119844152679],[-87.424260062830356,34.405261588704711],[-87.42650380835137,34.405372509728522],[-87.426872927824363,34.405341882393905],[-87.427131671283092,34.405323171490565],[-87.427738177920688,34.40510051393516],[-87.428174667228674,34.404695996794629],[-87.428332454790166,34.404233755022027],[-87.428633307908186,34.403508876041556],[-87.428842229044889,34.402815874521465],[-87.42916361346299,34.402198102735063],[-87.429679331574178,34.40206865720215],[-87.430420565612906,34.402120338757477],[-87.431109211086564,34.402326097491475],[-87.431688599212023,34.402625316907688],[-87.432470636476282,34.402875865774263],[-87.433139331040039,34.403005176403433],[-87.433344895775406,34.403109863726613],[-87.433752229721804,34.403119873971463],[-87.433991878090765,34.403070719594247],[-87.434230357504831,34.402960222207888],[-87.434391322630432,34.402666665520776],[-87.434568450648726,34.402250181340293],[-87.434770598056957,34.401204451356769],[-87.43472482812011,34.400744866682821],[-87.434563083849923,34.400026029293969],[-87.434365801215094,34.399384354089314],[-87.434416629920136,34.399138257269193],[-87.434611667640795,34.398690859547642],[-87.435029882240514,34.398301897224343],[-87.435288893867678,34.398298505338694],[-87.435755508006764,34.398507145952436],[-87.436408303583391,34.398774702690339],[-87.436961868113059,34.398690749218119],[-87.438309504628705,34.398519679264133],[-87.438696264858436,34.398422567100653],[-87.439080094176987,34.398172097615763],[-87.43948066350012,34.397829370392337],[-87.43984540085485,34.397548470330769],[-87.440270328703079,34.397512209806656],[-87.440919609890869,34.397595715101204],[-87.441493422533796,34.397603511882465],[-87.441768877445298,34.39749251394656],[-87.442374699468459,34.397239115014912],[-87.443328795308688,34.396812395661335],[-87.444231201180997,34.396585762543097],[-87.444876361740413,34.396454548892486],[-87.445205250442285,34.39623546321031],[-87.445475401192269,34.395848416901181],[-87.44612463577387,34.394965510216878],[-87.446649950697292,34.394375684072706],[-87.447145913804491,34.39418506856682],[-87.44784419385401,34.393930423188429],[-87.448926541878805,34.393440610346943],[-87.449882624383264,34.393121190586527],[-87.450197706755972,34.393147705244232],[-87.450479920466421,34.393389405753531],[-87.450900191435267,34.394074123717466],[-87.451432944904212,34.394834049360846],[-87.451960983134242,34.395348603970412],[-87.452241732559983,34.395513622376292],[-87.452501028817679,34.395525529813582],[-87.452813757009096,34.395429353313645],[-87.45330971122408,34.395238713061204],[-87.453623028582015,34.395173205565307],[-87.454030915031325,34.395213820308214],[-87.454812351478608,34.395433555648317],[-87.4559303454173,34.395832894992395],[-87.456176768476155,34.396136414287739],[-87.456521617667448,34.396745415267766],[-87.456752507347005,34.397202533539875],[-87.456853896184427,34.397661370218493],[-87.456955582485733,34.39813554222583],[-87.457146514278634,34.398439795869983],[-87.457317465116759,34.39866761742978],[-87.457707461961064,34.398739135925574],[-87.458204609434162,34.398609817551353],[-87.458959577952356,34.398415713338849],[-87.459402406395228,34.398348469651125],[-87.459958612118001,34.398402431898056],[-87.46032892148078,34.398412846227785],[-87.460845157095548,34.398313942093473],[-87.461135820292171,34.398033965136058],[-87.461427409136775,34.397639978161457],[-87.461694353167232,34.396783989478131],[-87.461949219835859,34.396201459419153],[-87.462422144852823,34.39571254774738],[-87.462948161692879,34.395388394698578],[-87.463407387122004,34.395051340536916],[-87.465662201833311,34.392098010177172],[-87.465926397951961,34.391997961669794],[-87.466859785141295,34.392095812865186],[-87.46804395538031,34.392259250685967],[-87.468292860129694,34.392228346283638],[-87.468488926944573,34.392046469032756],[-87.468715033418519,34.391698722273311],[-87.469238317795885,34.391236689567272],[-87.46970178831144,34.391120178973871],[-87.470333159412178,34.391084153717792],[-87.470851348126828,34.391215107899349],[-87.471455907798955,34.39151037081875],[-87.472109821998927,34.391777391580106],[-87.473303364006966,34.39156835099984],[-87.474064272133688,34.391351313352509],[-87.474706349935062,34.391011764921494],[-87.475249186785817,34.390701123143614],[-87.475395078413484,34.390506119545933],[-87.475682550844155,34.389895546457012],[-87.476089922169436,34.389462619078365],[-87.476254863008734,34.389391459257631],[-87.47660433646206,34.389400554268022],[-87.476907696619634,34.389603313160649],[-87.477348402101072,34.390024848752994],[-87.477666777438614,34.39014467019804],[-87.477981108454557,34.390057710956064],[-87.478328696512818,34.389970303708068],[-87.478939916741282,34.389755248848246],[-87.479238155831169,34.389696080770392],[-87.479754728390191,34.389744285231878],[-87.480676335451122,34.39009039057386],[-87.48096307866507,34.39029336295971],[-87.4815733407533,34.390878066314023],[-87.481947018825565,34.391272910012532],[-87.482621648088951,34.391746428875273],[-87.483530718260027,34.392299515041316],[-87.484470080552839,34.392700507155958],[-87.484971669481567,34.392831625009094],[-87.485422558933351,34.392922058748823],[-87.487052780225412,34.392927608497644],[-87.489282200791251,34.392952604291217],[-87.489532999168276,34.393018153479069],[-87.489770156604251,34.393235564889679],[-87.490394955852139,34.393709714539099],[-87.490697276623777,34.393857296770904],[-87.491651686341584,34.394175295490513],[-87.492304592970783,34.39438706483989],[-87.49377916347494,34.394932402327193],[-87.494162463964358,34.394968565348329],[-87.494444624267416,34.39493715619156],[-87.494674443054933,34.394782357223427],[-87.495393337393509,34.394124513266924],[-87.496117274047947,34.39336716972133],[-87.495907535179683,34.391138969864734],[-87.495884261751343,34.387543692457854],[-87.495860976051958,34.383945664229074],[-87.500285860093086,34.384001870630293],[-87.504710317075876,34.384055169994539],[-87.508422666378564,34.384099773060548],[-87.509127702987158,34.38362344200506],[-87.509785874365804,34.382855794708064],[-87.51017688659833,34.381881957606545],[-87.510493326714638,34.38050907654663],[-87.510574924066475,34.379677793334821],[-87.510593439195958,34.379023161968519],[-87.510545178887952,34.378186220204562],[-87.510500050676541,34.377506286025202],[-87.510514442257119,34.376893624761941],[-87.510512305181749,34.376537638926294],[-87.510598638049942,34.376117653640442],[-87.511658117291162,34.37542257231128],[-87.512876423246965,34.374777652129559],[-87.51341936820539,34.374430482026732],[-87.513408748019586,34.373287836731876],[-87.513374993276543,34.369656865806526],[-87.517743639078404,34.369718177990052],[-87.518110650857764,34.369723551993218],[-87.518700626829201,34.369253146455392],[-87.518945749016424,34.368883318609896],[-87.51970584200555,34.367433215103475],[-87.520525656256922,34.366133389424554],[-87.520838289923219,34.365663871379084],[-87.520858301024631,34.365087743084771],[-87.520834686758874,34.363910188798272],[-87.520740441256677,34.362515334391802],[-87.517647213076998,34.362461853768501],[-87.513307050840083,34.362389421750464],[-87.513279278846539,34.358785906905275],[-87.51325151125117,34.355182389915811],[-87.517568845909935,34.355241178464958],[-87.519241200166647,34.355263906895182],[-87.519400990175171,34.354155687578917],[-87.519532867848284,34.353573528162343],[-87.519505991629416,34.353127481063687],[-87.519243848953451,34.352580510838322],[-87.518795185660721,34.35164705221063],[-87.518624827872117,34.351234902946302],[-87.518728943348449,34.350162066990691],[-87.518781034672003,34.34917923076479],[-87.518905167411958,34.348210282905491],[-87.518902538166486,34.348037146177518],[-87.518999382194281,34.347539358733549],[-87.51904217079769,34.346988187462678],[-87.519039192679756,34.346839422528397],[-87.517474439350494,34.346846139096982],[-87.5174400247693,34.344389581267592],[-87.516409597489215,34.344382095759983],[-87.516370212312736,34.3425607747306],[-87.517413776181826,34.342530976017137],[-87.517377230243014,34.339942966127289],[-87.516322747622326,34.339287691847318],[-87.51570674443154,34.338983666348838],[-87.515288911789284,34.338721556849464],[-87.515031300111602,34.338397722398106],[-87.514860687506342,34.33793876670488],[-87.514671252211031,34.337435427352503],[-87.51434124133344,34.337117758879103],[-87.51299943768332,34.335960180728286],[-87.512475647541734,34.335703598839814],[-87.511798598145717,34.334979976116166],[-87.51086920251268,34.33425980753502],[-87.510255180040843,34.33344657165356],[-87.508648149128746,34.333417575067408],[-87.504315667071211,34.333339287250368],[-87.504249623880554,34.329708421272599],[-87.508593548909886,34.32979216239962],[-87.509226546201248,34.329804447578205],[-87.509452300234244,34.329166295403837],[-87.509470666251119,34.328834706340146],[-87.509283627830754,34.328216008743048],[-87.509250849674288,34.327822993933616],[-87.509314184647067,34.32724228596804],[-87.509701102523834,34.326615730644086],[-87.510045409246771,34.326196144515691],[-87.510309718735556,34.325841177503342],[-87.51055060754301,34.325402997089611],[-87.510612284280768,34.32473947668705],[-87.510570025625938,34.32387029389232],[-87.510493702503794,34.322580855232715],[-87.510407769312636,34.321988032355264],[-87.509876343374103,34.321622554902028],[-87.509747461078987,34.32141723332078],[-87.509568262116247,34.321191891803636],[-87.509350257296333,34.318951541549914],[-87.509272377125939,34.31832475132547],[-87.509187422365358,34.317478078109218],[-87.508765324913583,34.316805585356782],[-87.508444265150459,34.316075186420889],[-87.508404600158329,34.315793116911678],[-87.508598239138195,34.315253504867833],[-87.50879243725899,34.314742146076945],[-87.508917970792922,34.314203465338267],[-87.508732559622359,34.313442949341223],[-87.507908061868221,34.313086831127826],[-87.507596001597705,34.312808485825862],[-87.506796592116331,34.31199983713578],[-87.506401304041574,34.310959572431287],[-87.506007147121935,34.309975813181829],[-87.505722989673004,34.309386207797374],[-87.50540646874606,34.308881827291877],[-87.504850494774715,34.308324191872437],[-87.504229791306543,34.307937004542332],[-87.503677189104252,34.3075488851198],[-87.503403128006298,34.307467838981708],[-87.503098376211128,34.307556778326209],[-87.503069363167668,34.30781152536975],[-87.502769084369945,34.308126493123531],[-87.502332051383817,34.308415062706658],[-87.501824682666069,34.308591543953952],[-87.501453505118718,34.308766168100071],[-87.500948367275356,34.309055660498416],[-87.500675979520707,34.309059369363396],[-87.500568806606765,34.308806476937498],[-87.500666482616467,34.308579056867664],[-87.500958948902493,34.307868542558445],[-87.501117454726014,34.307272897080587],[-87.500929896622836,34.306399351194848],[-87.500514066870608,34.306037615852638],[-87.499650045790546,34.305399364921605],[-87.498168378731833,34.304505011100659],[-87.496527411168486,34.303688338516366],[-87.495813204491967,34.3034040146743],[-87.495447414212677,34.302820937823142],[-87.495433898838456,34.302135072606895],[-87.495955639251235,34.30080760245707],[-87.494534167897072,34.300789554531491],[-87.494608312480452,34.297122361761254],[-87.494682054763004,34.29345791721591],[-87.492426716350906,34.293421855143521],[-87.492413712488485,34.297081721406208],[-87.490219311695014,34.297041045341587],[-87.485831559411423,34.296959566686994],[-87.485768881685715,34.300599222580104],[-87.481386250496612,34.300503821292999],[-87.481442969970956,34.296875185329633],[-87.485831559411423,34.296959566686994],[-87.485894217856639,34.293317159912988],[-87.490287926641741,34.293387618215128],[-87.490356139633747,34.289736939320321],[-87.493440891804596,34.289776587006315],[-87.494762337756228,34.287370482671989],[-87.494765444715227,34.28614302436867],[-87.492666997451011,34.286114719929273],[-87.492694904395762,34.282463168921865],[-87.492750485936838,34.278814797941877],[-87.490402608559535,34.278780025048441],[-87.490418232132768,34.275126799165022],[-87.493689368433195,34.275177378863205],[-87.493648020572081,34.274639778662397],[-87.494024416473096,34.27332689835427],[-87.494596377738603,34.271733114466628],[-87.494907922050345,34.270532410950082],[-87.494992571462291,34.269724335162671],[-87.494973414984287,34.26875071638058],[-87.494847173069488,34.267444648235745],[-87.494660490237294,34.266473300503151],[-87.494513335803617,34.265807492723134],[-87.494605098739399,34.265361046781969],[-87.495092904536548,34.264603154239246],[-87.495482924064504,34.263985711848164],[-87.494572819725448,34.263719802104163],[-87.493191467753661,34.263348969125246],[-87.492278645301795,34.262943953188675],[-87.491497664946863,34.262425845746165],[-87.49064036820117,34.26110117484302],[-87.490332729559711,34.260626149252559],[-87.486254308363428,34.260522466423808],[-87.481861248328627,34.260410620446628],[-87.477468197989424,34.260298616920586],[-87.473044779072751,34.260156336107698],[-87.468621373128542,34.260013895536339],[-87.464197551270431,34.259868548015774],[-87.459774171519513,34.259725787918413],[-87.459793683574418,34.256086278193969],[-87.459813210748266,34.252449515087889],[-87.459828365024464,34.249627109228079],[-87.459557532277501,34.249482609071386],[-87.459332395934808,34.24943240989974],[-87.459157074103004,34.249474625283945],[-87.459031821995083,34.24962254859507],[-87.458861101727024,34.2499040401825],[-87.458738149400162,34.250171601524556],[-87.458613406838666,34.250346110733929],[-87.458440638867145,34.250521256616096],[-87.458092545160568,34.250738616213702],[-87.457888014080879,34.250927478938479],[-87.457779788126487,34.251128361467636],[-87.457735851027181,34.251341688386034],[-87.457775022489173,34.251713472205644],[-87.457651553273536,34.251954446258779],[-87.457367230722426,34.252157662144128],[-87.456905789952671,34.252310037685668],[-87.456553854888,34.252327995862089],[-87.456104336050714,34.252267465911245],[-87.455467800234203,34.252077915832892],[-87.454880281047224,34.251898067345877],[-87.454185027633429,34.251548257283524],[-87.453346213283425,34.251226933920933],[-87.45247538828265,34.250906027587881],[-87.451140988319864,34.250656547574494],[-87.451116789907118,34.252193198887205],[-87.45105856618585,34.255860341807256],[-87.446690608514757,34.255747141556618],[-87.446767968659671,34.25206343715459],[-87.442351697845396,34.251931015657199],[-87.442528876748156,34.248230457703556],[-87.442612934361208,34.244527484720926],[-87.438185277157231,34.244436184809047],[-87.438188887962923,34.240821461823742],[-87.438192899666561,34.237203986453018],[-87.433806530052451,34.237101383793117],[-87.429420169344851,34.236998624132468],[-87.425033224986478,34.236942439692406],[-87.420694774565249,34.236819959879533],[-87.420763603989641,34.233191261928717],[-87.41642784628111,34.233071369862714],[-87.412092526319171,34.232954071797216],[-87.412173568660407,34.229417983111048],[-87.409394604328483,34.229368863342742],[-87.409554694695174,34.229943687539802],[-87.408658603152361,34.229907414483485],[-87.408657677119947,34.229357407370117],[-87.396752733746766,34.22911011679949],[-87.39648371872525,34.229311452989428],[-87.395432694328562,34.230028010880339],[-87.394722260938423,34.23051005004659],[-87.393975739552914,34.231030992775764],[-87.393470870901012,34.231198141333216],[-87.391592401484118,34.231643929026056],[-87.391207327985171,34.231749274609022],[-87.390897576129504,34.232004339696537],[-87.390537977300298,34.232179675779797],[-87.390320419795145,34.232253755966724],[-87.390317662968485,34.232373840841312],[-87.390235263613619,34.235944844819741],[-87.390152858808975,34.239515846712102],[-87.385819216308192,34.23937837372101],[-87.381485172666331,34.239240748747036],[-87.381434631185186,34.242803398582794],[-87.377116541250814,34.24266282139746],[-87.372798452094926,34.24251934323263],[-87.368506825155492,34.242463596205134],[-87.364215616204646,34.242407697689863],[-87.364245289877971,34.246030577278518],[-87.359945177259874,34.24596630988178],[-87.355626036892062,34.24590194682893],[-87.355619277179841,34.249508440366625],[-87.359965532412318,34.249580969887262],[-87.359986304525989,34.253195626532303],[-87.360006666030642,34.25681028224691],[-87.355678177285768,34.256721210990634],[-87.355764392286801,34.253117239966834],[-87.351426221906408,34.253041790132322],[-87.34701025339092,34.252963658155913],[-87.347045987818106,34.256627753515971],[-87.346935242364381,34.260295010173259],[-87.342601785978729,34.260246724306015],[-87.342729685744359,34.256579422958758],[-87.342681199417157,34.252887872985035],[-87.342654522486342,34.250855415651543],[-87.341130871368918,34.252860122155667],[-87.338078857087183,34.256534109595577],[-87.337250212072775,34.257562731566736],[-87.336758972819439,34.258525543620671],[-87.335972754074703,34.260049491508575],[-87.335559276217239,34.261579453735422],[-87.33544074213988,34.262537691219741],[-87.335464967877087,34.263856226197404],[-87.336371482474121,34.267455024927223],[-87.337979147098011,34.26746149576158],[-87.337830228506689,34.271205811501567],[-87.342217222941926,34.271254114689242],[-87.342177658750671,34.274871681405045],[-87.346563211682763,34.274925330040567],[-87.346522188936405,34.278545648341854],[-87.346481164049607,34.282165964512231],[-87.342098513135213,34.282104059661464],[-87.342138092527648,34.278489245993107],[-87.337753575696823,34.2784299391136],[-87.337792110023372,34.274817875797922],[-87.337830228506689,34.271205811501567]],[[-87.37274991341296,34.2826413879624],[-87.368374144292744,34.282552913910955],[-87.368390091233962,34.278902432173915],[-87.364023660795496,34.278822020415532],[-87.364039808092414,34.276492447663415],[-87.364436580141316,34.276964617999425],[-87.364877985114404,34.27749671603204],[-87.365028371716832,34.277853245943113],[-87.364984743265509,34.278092731258823],[-87.364987993590091,34.278271895547029],[-87.365231056487872,34.278448061627302],[-87.365756837301561,34.278341928254804],[-87.366280447995322,34.278116349872896],[-87.366922514808394,34.277809640020841],[-87.36739634844588,34.277485121728631],[-87.368400136986253,34.276599238971485],[-87.369028584242656,34.276230151821622],[-87.369789079857753,34.27584229618494],[-87.370743669195321,34.275287868181024],[-87.372763132421795,34.275321237663327],[-87.372756528513648,34.278982688295841],[-87.3750102611438,34.279013878871631],[-87.375017510225049,34.282662224946264],[-87.37274991341296,34.2826413879624]],[[-87.442156113803961,34.28105819421873],[-87.442186554338392,34.277385671452926],[-87.442217407924261,34.273713145008472],[-87.442219706864634,34.270120435077189],[-87.442221992951957,34.266524974278056],[-87.446592188278927,34.266643820719615],[-87.446581469576032,34.27025305555],[-87.446570722653789,34.273856790742002],[-87.44654336968479,34.277529304643402],[-87.446516001626961,34.281199067601591],[-87.446509710736692,34.282042541126252],[-87.445106488969017,34.281638775307393],[-87.4442598974845,34.281405797927306],[-87.443471421334223,34.281416163177425],[-87.442818488465647,34.281524606892127],[-87.442150263866907,34.281754465114304],[-87.442156113803961,34.28105819421873]],[[-87.302632209874474,34.295883279735534],[-87.2982406833098,34.29584731848351],[-87.298195512222406,34.292202490602946],[-87.30259139312821,34.292235694459066],[-87.306957759039832,34.292348530367867],[-87.311324559524905,34.29246395835122],[-87.311338307761474,34.296078622436553],[-87.311352013120015,34.29969182253047],[-87.307012347296876,34.299610118991403],[-87.307080305951573,34.303272031457588],[-87.302739626835105,34.303205868168916],[-87.298336510817691,34.303161693664244],[-87.298285895436891,34.299496791513484],[-87.302672656786626,34.299541859008443],[-87.302632209874474,34.295883279735534]],[[-87.332236570505614,34.296929454374641],[-87.331946758402026,34.296558782309965],[-87.328835013232734,34.296453480573817],[-87.328842868134913,34.2946449454248],[-87.333238243174478,34.294724692460768],[-87.333230115293674,34.296546060480175],[-87.335585000923217,34.296594126964543],[-87.335519033308287,34.300244138293792],[-87.332179895684973,34.300257111062351],[-87.332236570505614,34.296929454374641]],[[-87.293934226295292,34.303117358891264],[-87.293969766407571,34.306781447182104],[-87.289551117467695,34.306728748257292],[-87.289531531176834,34.303072866875709],[-87.28512925357991,34.303028215646165],[-87.280716278439741,34.303002672453829],[-87.276303304838379,34.302976970282451],[-87.276263170409962,34.299318380522614],[-87.280694304599976,34.29936882781471],[-87.285125207664436,34.299380541123796],[-87.289512280765095,34.299428983238414],[-87.293899032166706,34.299471953938074],[-87.293934226295292,34.303117358891264]],[[-87.320177446494313,34.307103335211899],[-87.324559962954382,34.307226494173058],[-87.324627340757061,34.310854748306305],[-87.320250836390187,34.310728827872907],[-87.320177446494313,34.307103335211899]],[[-87.298438658482155,34.310500783930316],[-87.298489721350009,34.314164828119168],[-87.302939445611713,34.314228121829871],[-87.302824771471307,34.318492257014114],[-87.298364020204573,34.318412876175373],[-87.298365192309262,34.320188254540838],[-87.30283427257676,34.320241182373969],[-87.302914589738251,34.321487792546669],[-87.307280997878294,34.321537389326274],[-87.311647409924873,34.321586830409352],[-87.311655086236541,34.32523172956278],[-87.30727851573387,34.325174068400557],[-87.307276448775042,34.32881074427641],[-87.307279463339782,34.332477642086644],[-87.311667596148354,34.332535272613683],[-87.311672419346692,34.336191167720273],[-87.307282055192516,34.336141789961204],[-87.307285052717603,34.339803185826071],[-87.302894117100863,34.339761899137919],[-87.302892937566213,34.336092251688179],[-87.298549780972394,34.336036946420279],[-87.298542973856271,34.332361812272858],[-87.302891335306526,34.332419854282392],[-87.302890148592311,34.328747453648127],[-87.302902374024939,34.325118998562935],[-87.298524136882321,34.325055531018812],[-87.294146328887109,34.324994654710153],[-87.294110882543748,34.321363562894561],[-87.294075440429225,34.317732468899052],[-87.294040012126658,34.314104121513978],[-87.294004896726534,34.31044553424767],[-87.298438658482155,34.310500783930316]],[[-87.345290900296007,34.316000414111272],[-87.345270092179533,34.314930762085531],[-87.346299380059023,34.314937851808345],[-87.346322767117442,34.316004170935926],[-87.345290900296007,34.316000414111272]],[[-87.324750555177175,34.321775441271889],[-87.329121297662425,34.321868228723197],[-87.333492473454641,34.321963607787204],[-87.337862829534174,34.322058833066556],[-87.337890470103005,34.325648695669088],[-87.337918114346621,34.329238556146876],[-87.333547538189492,34.329181817967651],[-87.329176966595426,34.329124923771175],[-87.329198190391679,34.332756034627607],[-87.324821243461017,34.332704500313476],[-87.320443461770026,34.332650062916336],[-87.320435826780539,34.329007918553728],[-87.320407816811226,34.325343834886404],[-87.320379821026563,34.321682497786242],[-87.324750555177175,34.321775441271889]],[[-87.464850578624095,34.332472911617167],[-87.469205100031914,34.332654216775964],[-87.469295103179846,34.336246532046523],[-87.464935117511715,34.336084493243597],[-87.464850578624095,34.332472911617167]],[[-87.272227664834816,34.33575194333384],[-87.272233677577518,34.339407840133838],[-87.267796369351075,34.339362648990196],[-87.267796779661865,34.335712235021063],[-87.263401544782383,34.335680536104462],[-87.263395131169489,34.332038380580741],[-87.267796768099728,34.332059070991654],[-87.272221635959298,34.332090546772108],[-87.272227664834816,34.33575194333384]],[[-87.254612755239577,34.335622159080721],[-87.254631987445677,34.339245045565505],[-87.250243587400234,34.339204614173092],[-87.25021752693587,34.335589986901375],[-87.254612755239577,34.335622159080721]],[[-87.254573876358677,34.328373631712111],[-87.254593103211775,34.331996522509911],[-87.250191883883346,34.331975356632462],[-87.250165829854438,34.328360725059078],[-87.254573876358677,34.328373631712111]],[[-87.482710375542183,34.347381910744545],[-87.482619861536406,34.343803360351849],[-87.487024262325932,34.34390686627372],[-87.487105164650572,34.347510189713716],[-87.482710375542183,34.347381910744545]],[[-87.469636350489793,34.354290955989718],[-87.469600358676729,34.35065996162367],[-87.473977766211434,34.350764038797351],[-87.474015987363515,34.354389520505237],[-87.469636350489793,34.354290955989718]],[[-87.495958217491264,34.358538451748359],[-87.500288579802913,34.358600544974962],[-87.500311189031208,34.36219584032348],[-87.495979382574291,34.362131005881977],[-87.495958217491264,34.358538451748359]],[[-87.332621577757394,34.361884150949244],[-87.33256604626672,34.362644984532828],[-87.331593295519781,34.363257957835579],[-87.331621251199024,34.361873258817724],[-87.332621577757394,34.361884150949244]],[[-87.281123985451927,34.368890584129353],[-87.285544160673155,34.368921583936043],[-87.285561235836909,34.37261041840668],[-87.28553003784485,34.376238889985828],[-87.281120648691314,34.376202368378678],[-87.27671167663631,34.376165686950927],[-87.276723778880154,34.372537259750594],[-87.2811425060098,34.37257391885349],[-87.281123985451927,34.368890584129353]],[[-87.46531203325786,34.368697290589139],[-87.469676364179804,34.368815310726703],[-87.469660595014275,34.372449241709127],[-87.465306328524292,34.372311942271587],[-87.46531203325786,34.368697290589139]],[[-87.320249408223972,34.376276659454177],[-87.320178309430887,34.372620963102555],[-87.324607066806408,34.372675268143674],[-87.32903582856278,34.372729412895019],[-87.329083330813049,34.376398910226271],[-87.324666786673461,34.376339237842615],[-87.320249408223972,34.376276659454177],[-87.320320504026967,34.379929604791677],[-87.315980932211673,34.379888659497631],[-87.315925015519909,34.376254913354558],[-87.320249408223972,34.376276659454177]],[[-87.390554347645704,34.388788319489059],[-87.38617215756112,34.388686779230298],[-87.386235068031411,34.384967493603277],[-87.386297962212723,34.381245456822207],[-87.381883706422329,34.381113626284822],[-87.381878110981404,34.381559653270969],[-87.37746616461142,34.381378426356832],[-87.377469450593026,34.380978887687419],[-87.377500296982916,34.377232211486039],[-87.377531129899538,34.373482784261924],[-87.381977439169589,34.373644909938115],[-87.386423776617335,34.373809622698843],[-87.390870117106275,34.373971425065676],[-87.39079117634752,34.377674277671098],[-87.395112888890779,34.377814332713015],[-87.399434627329882,34.377956983766943],[-87.403756365672919,34.378096733367414],[-87.403720892349185,34.381758214740756],[-87.399384940750053,34.381632254923751],[-87.399334850073402,34.385310273964826],[-87.3992847566535,34.388988290806751],[-87.399312034010833,34.392550604758675],[-87.394935455690117,34.392452109798519],[-87.394919541288928,34.388887008683845],[-87.390554347645704,34.388788319489059]],[[-87.381796154299664,34.388582480784827],[-87.381793769574031,34.389023086856106],[-87.377413021963008,34.388902507564083],[-87.377407779258419,34.388477730445246],[-87.381796154299664,34.388582480784827]],[[-87.355339435500198,34.387936326313472],[-87.351002127571334,34.387844391088933],[-87.351013119558999,34.384122517663229],[-87.346663635228666,34.384044206748975],[-87.346663452558744,34.382237046999499],[-87.351018649868166,34.382246476851094],[-87.351754383077065,34.382235630155812],[-87.351759146912585,34.380408292434758],[-87.355384933075783,34.380459524196318],[-87.355362184546081,34.384197926392574],[-87.355339435500198,34.387936326313472]],[[-87.364213270648449,34.382077176564678],[-87.364201492529418,34.384405584187881],[-87.364842676072172,34.384420424571481],[-87.364830610876368,34.384853378005552],[-87.363724145003516,34.384822276003206],[-87.363730244130593,34.38439438303751],[-87.361997499143939,34.38435318141034],[-87.359781827966827,34.384300460793483],[-87.359802698862282,34.380556566462218],[-87.359823569429281,34.376812669849002],[-87.364239051507781,34.376904061807736],[-87.364220473370509,34.380653449182155],[-87.364213270648449,34.382077176564678]],[[-87.35560096829289,34.397455093656518],[-87.355588725602232,34.397009076488864],[-87.359981199725723,34.396953685455692],[-87.360000544696263,34.397417166736552],[-87.35560096829289,34.397455093656518]],[[-87.355687173678959,34.400589046872291],[-87.360069750644072,34.400533311391165],[-87.360115867400623,34.40239738724118],[-87.357819756233724,34.402382507979567],[-87.357777566008679,34.406037120106447],[-87.355665837773344,34.40601678691435],[-87.355736209883503,34.402368968855264],[-87.354675207340463,34.402343314059827],[-87.354580905091368,34.398735880219363],[-87.355636791656394,34.398760125386573],[-87.355687173678959,34.400589046872291]],[[-87.394967694705045,34.399579555704456],[-87.394951774544637,34.396014458763496],[-87.399339742766827,34.396115663985363],[-87.39936704089989,34.3996807224664],[-87.394967694705045,34.399579555704456]],[[-87.390546979583803,34.257800196587176],[-87.390551438058353,34.256603856021677],[-87.392397166597988,34.256679613927815],[-87.392403349684557,34.257858212488841],[-87.390546979583803,34.257800196587176]],[[-87.37075847710986,34.257033618312484],[-87.368663678598665,34.256990714845855],[-87.36862425407196,34.25335962628516],[-87.372943853880599,34.253440021544996],[-87.372967941993551,34.255253700705005],[-87.370751162717369,34.255196986352395],[-87.37075847710986,34.257033618312484]],[[-87.391251060698565,34.254742041309896],[-87.391252832738516,34.255416744448951],[-87.390510279529892,34.25543126748196],[-87.390347622807425,34.251061221407767],[-87.394719967470223,34.251204826440954],[-87.394882447807362,34.254901456056196],[-87.391251060698565,34.254742041309896]]],[[[-87.333224789282966,34.297738076894134],[-87.333230115293674,34.296546060480175],[-87.332550924440909,34.296531763932435],[-87.333224789282966,34.297738076894134]]]]},"properties":{"Name":"Black Warrior Wildlife Management Area","Acres":90267.824426451305,"Link":"https://outdooralabama.com/sites/default/files/PDF%20documents/WMA%20Mamps/2026-2027/2026_27_D1%20Black%20Warrior%20WMA%20ADA.pdf"}}]}